STARLINK-34618          
1 64770U 25147R   26068.76124778  .00036273  00000+0  12309-2 0  9994
2 64770  53.1582 242.3526 0000764  48.9361 311.1706 15.30198566 38691
GLOBAL-34               
1 68098U 26043A   26068.47466435  .00014018  00000+0  45822-3 0  9994
2 68098  42.0215  76.7399 0006884 289.2632  70.7460 15.31488019   538
